OPTICUBE 04             
1 41851U 16067D   24234.52758454  .00007177  00000+0  53012-3 0  9999
2 41851  98.0837  42.2508 0017486 192.1082 167.9724 15.03447600425058
AEROCUBE 8D             
1 41852U 16067E   24234.43094582  .00015831  00000+0  99853-3 0  9994
2 41852  98.1119  47.2820 0004247 245.3763 114.7022 15.09202686425233
AEROCUBE 8C             
1 41853U 16067F   24234.44636765  .00015462  00000+0  97571-3 0  9996
2 41853  98.0931  45.7161 0007678 174.6808 185.4502 15.09175242425225
PROMETHEUS 2-1          
1 41854U 16067G   24234.47186033  .00035550  00000+0  16378-2 0  9993
2 41854  98.1014  54.2406 0011772 193.1014 166.9915 15.20138840425645
PROMETHEUS 2-3          
1 41855U 16067H   24235.06219498  .00034436  00000+0  15881-2 0  9992
2 41855  98.0950  54.2989 0010048 201.2139 158.8679 15.20127619425733
AALTO-1                 
1 42775U 17036L   24235.05932969  .00730068  24885-3  13978-2 0  9995
2 42775  97.0845 266.5616 0005290 213.4753 146.6192 16.00582357399505
CORVUS BC2              
1 42846U 17042X   24234.44846236  .00008937  00000+0  75098-3 0  9998
2 42846  97.3746  55.9483 0008124 187.0836 173.0274 14.98488620387219
CORVUS BC1              
1 42847U 17042Y   24234.46951877  .00009230  00000+0  77206-3 0  9999
2 42847  97.3769  56.3801 0007341 182.6372 177.4814 14.98662702387235
MIRATA                  
1 43015U 17073C   24235.17019249  .00045318  00000+0  19399-2 0  9993
2 43015  97.5842 119.2686 0160292  35.6992 325.4830 15.11704734366280
MAKERSAT 0              
1 43016U 17073D   24234.63358355  .00026247  00000+0  14147-2 0  9994
2 43016  97.5706 111.8550 0189844  61.4879 300.5315 15.00542977365720
GOMX-4B                 
1 43196U 18015E   24235.03495625  .00194982  00000+0  11392-2 0  9998
2 43196  97.6033  54.2815 0003482  52.5474 307.6108 15.77821246365857
SIRION PATHFINDER-2     
1 43759U 18099B   24234.72729553  .00009740  00000+0  71085-3 0  9993
2 43759  97.5223 289.0511 0012264  69.4014 290.8527 15.03829998312354
CORVUS BC4              
1 43767U 18099K   24234.85873227  .00008938  00000+0  66631-3 0  9993
2 43767  97.5069 286.1892 0012301 116.7267 243.5219 15.03049146312250
MOVE-II                 
1 43780U 18099Y   24235.16411740  .00041635  00000+0  19357-2 0  9994
2 43780  97.5152 297.6800 0007056 113.2976 246.9002 15.19821784312939
SPACEBEE-7              
1 43816U 18099BL  24234.75512144  .00026706  00000+0  14558-2 0  9998
2 43816  97.5428 297.7467 0009992  68.4453 291.7843 15.14316609312321
SPACEBEE-6              
1 43818U 18099BN  24234.84882573  .00073904  00000+0  25203-2 0  9997
2 43818  97.5348 304.4616 0006367  64.0723 296.1173 15.30049782312925
SHIELDS 1               
1 43850U 18104B   24234.47484077  .00023816  00000+0  59007-3 0  9993
2 43850  85.0184 238.7139 0011150 169.8203 190.3276 15.40205163316205
SONATE                  
1 44400U 19038Q   24234.48672110  .00037949  00000+0  10106-2 0  9998
2 44400  97.7140 231.6711 0013314 222.2794 137.7424 15.38006530284107
LUCKY-7                 
1 44406U 19038W   24234.54686394  .00085039  00000+0  14052-2 0  9997
2 44406  97.7022 236.9426 0011718 193.3491 166.7452 15.51866366284470
DUCHIFAT-3              
1 44854U 19089C   24234.71735313  .00031404  00000+0  14488-2 0  9995
2 44854  36.9573  10.3760 0006055 298.8302  61.1838 15.19388735258232
M2 PATHFINDER           
1 45727U 20037E   24235.07132999  .00007034  00000+0  60180-3 0  9994
2 45727  97.7803  51.2003 0010256 265.2208  94.7843 14.97879838225807
NETSAT-4                
1 46504U 20068U   24234.94262622  .00017284  00000+0  87466-3 0  9998
2 46504  97.8106 193.9560 0011913 128.9996 231.2299 15.17028965214137
NETSAT-3                
1 46505U 20068V   24234.82131938  .00019189  00000+0  98764-3 0  9990
2 46505  97.8080 193.2532 0011031 135.9306 224.2807 15.16418370214101
NETSAT-1                
1 46506U 20068W   24234.88289717  .00014520  00000+0  79160-3 0  9999
2 46506  97.8105 192.6240 0009479 144.1216 216.0653 15.14457655214064
NETSAT-2                
1 46507U 20068X   24235.16013039  .00018792  00000+0  95207-3 0  9999
2 46507  97.8091 193.7912 0008647 144.4418 215.7392 15.16998387214116
WILDTRACKCUBE-SIMBA     
1 47941U 21022K   24235.22181137  .00026500  00000+0  10891-2 0  9996
2 47941  97.4502 131.4755 0011963 271.4374  88.5493 15.24090367188515
GRBALPHA                
1 47959U 21022AD  24235.18885820  .00040154  00000+0  13864-2 0  9994
2 47959  97.4505 133.7775 0009992 258.5737 101.4382 15.29792302187482
BCCSAT-1                
1 48041U 21022AK  24234.81467639  .00315347  00000+0  25650-2 0  9995
2 48041  97.4480 144.9104 0009348 152.2992 207.8770 15.69682757188147
BEESAT-8                
1 48085U 21022AP  24234.67408877  .00053584  00000+0  14303-2 0  9991
2 48085  97.4699 137.6298 0007893 236.5617 123.4873 15.37909315187922
LEDSAT                  
1 49069U 21073D   24235.14515827  .00033292  00000+0  12096-2 0  9998
2 49069  97.4325 305.9469 0018206  53.9738 306.3186 15.28054084166511
ROBUSTA-1F (MTCUBE 2)   
1 53109U 22080E   24234.77298734 -.00000003  00000+0  00000+0 0  9994
2 53109  70.1270 169.3199 0007795  73.7371 286.4145  6.42584294 49378
SITRO-AIS 5 (KATYS)     
1 57176U 23091L   24235.19662377  .00014257  00000+0  87698-3 0  9997
2 57176  97.6067 286.8563 0015762 253.2228 106.7272 15.10036673 63451
SITRO-AIS 6 (CHIRKIN)   
1 57192U 23091AC  24235.17928010  .00014387  00000+0  88379-3 0  9993
2 57192  97.6058 286.8677 0015804 253.2481 106.7015 15.10083742 63457
SITRO-AIS 8 (ANOKHIN)   
1 57193U 23091AD  24235.19749094  .00015252  00000+0  92558-3 0  9995
2 57193  97.6063 286.9878 0015303 253.6584 106.2963 15.10519666 63467
SITRO-AIS 7 (FARTUSHNIY)
1 57194U 23091AE  24235.18647416  .00014084  00000+0  86670-3 0  9990
2 57194  97.6060 286.8506 0015599 253.7610 106.1903 15.10027741 63450
SITRO-AIS 10 (BURDAEV)  
1 57199U 23091AK  24235.21885321  .00017888  00000+0  10289-2 0  9995
2 57199  97.6080 288.1122 0010930 238.8684 121.1475 15.12472912 63531
SITRO-AIS 9 (SHCHUKIN)  
1 57201U 23091AM  24235.15189775  .00017958  00000+0  10337-2 0  9994
2 57201  97.6075 288.0200 0010892 238.8710 121.1452 15.12445066 63526
SITRO-AIS 12 (SMIRENNIY)
1 57204U 23091AQ  24235.17213651  .00017917  00000+0  10258-2 0  9997
2 57204  97.6078 288.1978 0011053 232.9543 127.0677 15.12637711 63539
SITRO-AIS 11 (SHEFFER)  
1 57208U 23091AU  24235.15385971  .00019062  00000+0  10877-2 0  9994
2 57208  97.6081 288.2095 0010790 232.8972 127.1273 15.12748020 63539
ROBUSTA-1E (ENSO)       
1 58470U 23185J   24235.16402807  .00032835  00000+0  12594-2 0  9990
2 58470  97.4205 301.2957 0012090  51.9552 308.2776 15.26354976 40194
SITRO-AIS 29            
1 59052U 24039B   24235.16714967  .00046433  00000+0  14875-2 0  9992
2 59052  97.3961 196.8141 0014357 355.8068   4.3051 15.32126387 26686
SITRO-AIS 30            
1 59053U 24039C   24235.17017178  .00045292  00000+0  14578-2 0  9996
2 59053  97.3959 196.8049 0014621 356.2649   3.8481 15.31977405 26679
SITRO-AIS 31            
1 59054U 24039D   24235.15697594  .00046627  00000+0  14911-2 0  9995
2 59054  97.3959 196.8236 0014440 356.4846   3.6292 15.32180463 26699
SITRO-AIS 33            
1 59055U 24039E   24235.20835482  .00046168  00000+0  14707-2 0  9995
2 59055  97.3962 196.9149 0014212 357.4278   2.6888 15.32310788 26690
SITRO-AIS 35            
1 59056U 24039F   24235.20379085  .00043725  00000+0  13936-2 0  9997
2 59056  97.3961 196.9173 0014097 357.9909   2.1273 15.32308450 26690
SITRO-AIS 32            
1 59057U 24039G   24235.15064375  .00042463  00000+0  13599-2 0  9998
2 59057  97.3963 196.8383 0014160 358.0428   2.0756 15.32161116 26684
SITRO-AIS 34            
1 59058U 24039H   24235.20946015  .00046209  00000+0  14725-2 0  9999
2 59058  97.3962 196.9150 0014186 357.7202   2.3972 15.32299832 26692
SITRO-AIS 36            
1 59059U 24039J   24235.19666985  .00046906  00000+0  14890-2 0  9990
2 59059  97.3961 196.9272 0013813 357.9912   2.1272 15.32424440 26699
SITRO-AIS 49            
1 59060U 24039K   24235.19919454  .00044900  00000+0  14304-2 0  9996
2 59060  97.3961 196.9241 0013864 357.4155   2.7013 15.32319857 26691
SITRO-AIS 50            
1 59061U 24039L   24235.18291507  .00047084  00000+0  14888-2 0  9991
2 59061  97.3960 196.9444 0013755 357.6629   2.4546 15.32549264 26698
SITRO-AIS 51            
1 59062U 24039M   24235.18280322  .00049992  00000+0  15791-2 0  9999
2 59062  97.3961 196.9438 0013737 357.9355   2.1828 15.32568246 26693
SITRO-AIS 52            
1 59063U 24039N   24235.17242127  .00047835  00000+0  15063-2 0  9996
2 59063  97.3962 196.9604 0013610 357.9051   2.2132 15.32679783 26691
SITRO-AIS 25            
1 59066U 24039R   24235.18829684  .00009256  00000+0  86308-3 0  9995
2 59066  95.3984 142.0842 0171582 115.5546 246.3524 14.83749160 25891
SITRO-AIS 26            
1 59067U 24039S   24235.18940166  .00008665  00000+0  80947-3 0  9991
2 59067  95.3984 142.0823 0171541 115.5866 246.3195 14.83697523 25890
SITRO-AIS 27            
1 59068U 24039T   24235.17243723  .00010050  00000+0  93447-3 0  9996
2 59068  95.3986 142.1021 0171149 115.4163 246.4882 14.83892967 25890
SITRO-AIS 28            
1 59071U 24039U   24235.16801413  .00009885  00000+0  91860-3 0  9996
2 59071  95.3987 142.1079 0171004 115.3990 246.5043 14.83933150 25895
GRBBETA                 
1 60237U 24128C   24234.94391076  .00009495  00000+0  82617-3 0  9992
2 60237  61.9963  12.6198 0013553 318.6963  41.3099 14.97421042  6448
OOV-CUBE (TUBSAT-30)    
1 60240U 24128F   24234.82741994  .00006596  00000+0  58991-3 0  9998
2 60240  61.9998  13.1821 0012094 305.8439  54.1526 14.96722199  6436
ROBUSTA-3A (MEDITERRAN*)
1 60243U 24128J   24235.17530040  .00014081  00000+0  12439-2 0  9992
2 60243  61.9938  12.0549 0014109 293.7541  66.2067 14.96537785  6480
